ZHUHAI-1 01 (CAS-4A)    
1 42761U 17034D   23235.12296259  .00008362  00000+0  40685-3 0  9990
2 42761  43.0140 101.7811 0011667 183.7915 176.2847 15.18620805341816
MAX VALIER SAT          
1 42778U 17036P   23235.07055247  .00025510  00000+0  59377-3 0  9996
2 42778  97.1484 268.4665 0007154 198.2958 161.8033 15.42250357343027
RADFXSAT (FOX-1B)       
1 43017U 17073E   23235.49354655  .00005713  00000+0  39618-3 0  9994
2 43017  97.6197 117.1909 0229457 206.4550 152.4806 14.87058208311188
FOX-1D (AO-92)          
1 43137U 18004AC  23235.20519683  .00047067  00000+0  79426-3 0  9994
2 43137  97.3224 315.3606 0004395 241.0233 119.0579 15.51500842312679
DIWATA-2B               
1 43678U 18084H   23235.45261377  .00001351  00000+0  13351-3 0  9994
2 43678  98.0322  20.8219 0008415 304.1401  55.9019 14.93664611262300
ES'HAIL 2               
1 43700U 18090A   23235.23586566  .00000153  00000+0  00000+0 0  9995
2 43700   0.0256 246.3232 0002322 294.1947 261.4681  1.00272019 17600
FOX-1CLIFF (AO-95)      
1 43770U 18099N   23235.12499115  .00005762  00000+0  45994-3 0  9998
2 43770  97.5744 294.8737 0013035 285.4748  74.5036 15.00595073257643
ITASAT 1                
1 43786U 18099AE  23234.74377999  .00003667  00000+0  29795-3 0  9990
2 43786  97.5723 295.5349 0014575 265.7519  94.2040 15.00124370257621
JY1SAT (JO-97)          
1 43803U 18099AX  23235.10119773  .00005737  00000+0  44557-3 0  9998
2 43803  97.5706 296.0038 0011472 230.4164 129.6049 15.01659374257733
UWE-4                   
1 43880U 18111E   23235.21546791  .00006844  00000+0  51048-3 0  9997
2 43880  97.6272 139.3704 0017234 308.0076  51.9592 15.03067969252439
NEXUS (FO-99)           
1 43937U 19003F   23235.05396929  .00094241  00000+0  10390-2 0  9991
2 43937  97.0794 261.8419 0009031  48.7152 311.4884 15.62750901256452
JAISAT-1                
1 44419U 19038F   23235.50633328  .00026556  00000+0  81289-3 0  9992
2 44419  97.6774 219.6461 0016389  70.9854 289.3162 15.33673206228844
DUCHIFAT-3              
1 44854U 19089C   23235.53267701  .00008897  00000+0  58074-3 0  9996
2 44854  36.9621  48.4590 0006794 151.3885 208.7233 15.07394730202997
CAS-6 (TIANQIN 1)       
1 44881U 19093C   23235.51637642  .00001107  00000+0  14357-3 0  9997
2 44881  97.8585 312.8192 0013901 213.9685 146.0639 14.82692390198778
RS-44 & BREEZE-KM R/B   
1 44909U 19096E   23234.20823319  .00000009  00000+0 -10444-4 0  9999
2 44909  82.5218 304.0826 0217930  32.8909 328.5538 12.79722048170655
BY70-2                  
1 45857U 20042B   23234.75045163  .00011856  00000+0  11398-2 0  9996
2 45857  97.9221 314.9957 0009866 148.1722 212.0095 14.93140093169462
SALSAT                  
1 46495U 20068K   23235.07023848  .00005303  00000+0  34458-3 0  9998
2 46495  97.7734 183.8242 0013536 250.0963 109.8806 15.08390725159151
RADFXSAT-2 (AO-109)     
1 47311U 21002C   23235.08335153  .00032859  00000+0  74816-3 0  9999
2 47311  60.6790 160.6674 0007212 324.4422  35.6193 15.42765855144609
UVSQ-SAT                
1 47438U 21006AB  23235.07171015  .00015994  00000+0  61370-3 0  9999
2 47438  97.3782 291.2929 0009286 195.8103 164.2847 15.26519905142844
LEDSAT                  
1 49069U 21073D   23235.17089037  .00007924  00000+0  42121-3 0  9995
2 49069  97.4772 304.9498 0022150 246.3521 113.5386 15.15339108111046
XW-3 (CAS-9)            
1 50466U 21131B   23235.47889750  .00000647  00000+0  22396-3 0  9993
2 50466  98.5498 316.8128 0003174 307.5304  52.5595 14.39015695 87034
TEVEL-3                 
1 50988U 22002E   23235.43707595  .00020815  00000+0  76491-3 0  9996
2 50988  97.4275 302.0552 0006419   7.6244 352.5092 15.27917520 89020
TEVEL-8                 
1 50989U 22002F   23235.26239556  .00021919  00000+0  80718-3 0  9998
2 50989  97.4292 301.9476 0006459   7.5926 352.5409 15.27837372 88996
TEVEL-5                 
1 50998U 22002Q   23235.40831458  .00022524  00000+0  80357-3 0  9995
2 50998  97.4270 302.4953 0007300 359.1712   0.9515 15.28869155 89058
TEVEL-6                 
1 50999U 22002R   23235.40686584  .00022537  00000+0  80406-3 0  9993
2 50999  97.4268 302.4871 0007290 358.8904   1.2318 15.28866767 89053
TEVEL-1                 
1 51013U 22002AF  23235.38359663  .00020827  00000+0  76670-3 0  9991
2 51013  97.4268 301.9332 0006325   7.7719 352.3618 15.27860232 89018
TEVEL-7                 
1 51062U 22002CG  23235.45890318  .00021566  00000+0  79345-3 0  9993
2 51062  97.4288 302.1148 0006359   6.3534 353.7785 15.27870692 89021
TEVEL-4                 
1 51063U 22002CH  23235.27113500  .00021629  00000+0  79763-3 0  9999
2 51063  97.4284 301.9040 0006415   6.6934 353.4390 15.27793724 88990
TEVEL-2                 
1 51069U 22002CP  23235.43865628  .00020699  00000+0  76051-3 0  9991
2 51069  97.4272 302.0260 0006366   7.6201 352.5134 15.27924507 89028
GREENCUBE               
1 53106U 22080B   23234.35602908 -.00000003  00000+0  00000+0 0  9996
2 53106  70.1544 296.7314 0008666 173.7871 186.2897  6.42556953 26004
CYCLOPS (RS29S SXC3-21*)
1 53373U 22096D   23235.53067424  .00038253  00000+0  84358-3 0  9997
2 53373  97.4040 142.7959 0002979 100.1165 260.0419 15.43807964 58063
MONITOR-1 (RS32S SXC3-*)
1 53374U 22096E   23235.48150525  .00034309  00000+0  79210-3 0  9996
2 53374  97.4014 142.4919 0002372 109.7885 250.3618 15.42462574 58043
KUZBASS-300 (RS34S SXC*)
1 53375U 22096F   23235.53903877  .00026989  00000+0  68453-3 0  9991
2 53375  97.4049 142.0306 0002080 106.3385 253.8090 15.39662250 58010
UTMN (RS23S SXC3-216)   
1 53376U 22096G   23235.53586408  .00027879  00000+0  69131-3 0  9992
2 53376  97.4043 142.1766 0002363 101.7262 258.4250 15.40344073 58025
MIET-AIS (RS28S SXC3-2*)
1 53377U 22096H   23235.51002063  .00022475  00000+0  58520-3 0  9998
2 53377  97.4059 141.9325 0002030 109.0818 251.0647 15.38893476 58000
KAI-1 (RS26S)           
1 53378U 22096J   23235.49103419  .00020089  00000+0  55659-3 0  9992
2 53378  97.4076 141.5302 0001935 107.2002 252.9454 15.36994580 57976
ISOI (RS19S SXC3-219)   
1 53381U 22096M   23235.48419602  .00025121  00000+0  63397-3 0  9999
2 53381  97.4049 142.2434 0004354 137.9667 222.1913 15.39822845 58022
CUBESX-HSE-2 (RS21S)    
1 53383U 22096P   23235.49743520  .00027188  00000+0  66969-3 0  9994
2 53383  97.4047 142.3909 0004814 139.9421 220.2181 15.40544034 58031
SIREN (RS30S SXC3-217)  
1 53384U 22096Q   23235.54128757  .00022384  00000+0  59053-3 0  9999
2 53384  97.4064 142.0539 0004789 140.2391 219.9206 15.38481486 58018
GEOSCAN-EDELVEIS (RS20S)
1 53385U 22096R   23235.49245482  .00038237  00000+0  79619-3 0  9993
2 53385  97.4023 143.4251 0006286 131.9761 228.2024 15.45488883 58132
VIZARD (RS33S SXC3-215) 
1 53386U 22096S   23235.39674460  .00060953  00000+0  10294-2 0  9998
2 53386  97.4023 144.4721 0006732 132.5895 227.5926 15.51402572 58183
CAS-5A (FO-118)         
1 54684U 22167C   23235.52088786  .00011858  00000+0  62482-3 0  9991
2 54684  97.5707  12.7428 0014011 102.9256 257.3542 15.15663231 38877
STRATOSAT-TK 1 (RS52S)  
1 57167U 23091B   23235.51225111  .00006767  00000+0  49202-3 0  9999
2 57167  97.6583 285.6681 0019093  61.3503 298.9640 15.04009684  8555
UMKA 1 (RS40S)          
1 57172U 23091G   23235.38011527  .00003364  00000+0  24854-3 0  9990
2 57172  97.6585 285.5355 0019362  60.4597 299.8556 15.03758350  8536
CUBESX-HSE 3 (RS42S)    
1 57178U 23091N   23235.51807728  .00004562  00000+0  33565-3 0  9997
2 57178  97.6627 285.6916 0020424  55.6128 304.7025 15.03714671  8557
MONITOR-4 (RS57S)       
1 57182U 23091S   23235.32083658  .00004343  00000+0  32048-3 0  9991
2 57182  97.6620 285.4834 0020860  57.1850 303.1380 15.03629761  8524
MONITOR-2 (RS39S)       
1 57184U 23091U   23235.42165909  .00004295  00000+0  31122-3 0  9992
2 57184  97.6629 285.6539 0016011  50.8749 309.3897 15.04389696  8543
SVYATOBOR 1 (RS60S)     
1 57187U 23091X   23234.88129629  .00004988  00000+0  35790-3 0  9997
2 57187  97.6634 285.1380 0015942  51.8092 308.4567 15.04686045  8468
VIZARD-METEO (RS38S)    
1 57189U 23091Z   23235.40063892  .00005545  00000+0  39324-3 0  9994
2 57189  97.6626 285.6767 0015164  50.3701 309.8861 15.05081427  8547
NANOZOND 1 (RS49S)      
1 57190U 23091AA  23235.25871884  .00007080  00000+0  49638-3 0  9992
2 57190  97.6598 285.5329 0013923  57.1810 303.0756 15.05426330  8520
POLYTECH-UNIVERSE 3 (R*)
1 57191U 23091AB  23235.32102309  .00003114  00000+0  23173-3 0  9990
2 57191  97.6596 285.4606 0020428  61.5883 298.7398 15.03535669  8529
UTMN 2 (RS27S)          
1 57203U 23091AP  23235.40372380  .00005068  00000+0  36082-3 0  9994
2 57203  97.6627 285.6726 0015470  50.2060 310.0526 15.04977975  8540
ARCCUBE 1 (RS25S)       
1 57205U 23091AR  23235.32644371  .00007885  00000+0  55194-3 0  9993
2 57205  97.6581 285.5855 0014307  58.6543 301.6082 15.05447497  8533
KUZGTU 1 (RS47S)        
1 57217U 23091AV  23235.51649504  .00004219  00000+0  31055-3 0  9998
2 57217  97.6600 285.6756 0020265  56.7106 303.6057 15.03744670  8550
